MALLIGYONG-1            
1 58400U 23179A   24153.20057754  .00006043  00000+0  26117-3 0  9996
2 58400  97.4062  40.3112 0007865 328.2129  31.8632 15.22817221 29297
